#cP2024  2 16 12  0  0.00000000     577 d+D   IGS20 EXT AIUB
## 2301 475200.00000000   300.00000000 60356 0.5000000000000
+   77   G01G02G03G04G05G06G07G08G10G11G12G13G14G15G16G17G18
+        G19G20G21G22G23G24G25G26G27G28G29G30G31G32R01R02R03
+        R04R05R07R08R09R11R12R13R14R15R16R17R18R19R20R21R22
+        R24E02E03E04E05E07E08E09E10E11E12E13E14E15E18E19E21
+        E24E25E26E27E30E31E33E34E36  0  0  0  0  0  0  0  0
++         6  7  6  5  7  6  7  6  6  7  7  7  5  7  7  7  7
++         7  7  7  7  6  6  6  6  6  6  7  5  7  6  9  7  8
++         8  8  8  7  6  6  6  7  5  6  7  7  7  8  9  8  7
++         8  6  7  7  7 10  9  7  7  6  7  6  7  7  7  9  6
++         5  6  7  6  6  5  7  6  6  0  0  0  0  0  0  0  0
%c M  cc GPS ccc cccc cccc cccc cccc ccccc ccccc ccccc ccccc
%c cc cc ccc ccc cccc cccc cccc cccc ccccc ccccc ccccc ccccc
%f  1.2500000  1.025000000  0.00000000000  0.000000000000000
%f  0.0000000  0.000000000  0.00000000000  0.000000000000000
%i    0    0    0    0      0      0      0      0         0
%i    0    0    0    0      0      0      0      0         0
/* Center for Orbit Determination in Europe (CODE)          
/* Ultra-rapid GRE orbits starting year-day 24047 12 hour   
/* Observed/predicted: 24/24 hours (data used up to 048L)   
/* PCV:IGS20      OL/AL:FES2014b NONE     YN ORB:CoN CLK:BRD
*  2024  2 16 15 35  0.00000000
PG01  -6150.000380 -13539.402016 -22371.029058    169.795210
PG02   2685.696251 -16064.901968 -20432.597928   -484.500858
PG03  -8707.124985 -21189.000329 -13688.220652    197.053580
PG04    538.509224 -24858.699748   9157.932005    293.195903
PG05  -2744.546081  16353.701139  20552.906997   -162.046790
PG06 -25915.861222   5732.901046  -1953.472752    404.685952
PG07 -18354.604142  -8198.049505  18080.678569    -63.397271
PG08   5250.637096 -25792.813696   -458.527872   -167.317987
PG10  21280.436573   7540.140548 -14041.862351      0.731381
PG11 -21716.391897  11894.611324   9572.257771   -577.850491
PG12   6545.805131  21824.340755 -13992.669746   -478.579142
PG13 -13573.672092  21690.636905   6470.962006    626.084896
PG14 -21720.073606 -10748.536157 -11064.624265    327.337545
PG15  -1966.292702  26370.435005   -767.808691    128.334429
PG16   9985.263122 -11332.282235  21489.899890   -361.320103
PG17 -14564.076029  -2962.949400 -21594.872600    716.789799
PG18  19064.865445   7012.571115  17223.369434   -556.904350
PG19 -16721.983956   6502.809621 -19648.151828    441.516431
PG20 -14533.535311   8020.957925  20762.689716    387.274273
PG21   7782.773408 -16673.158617 -18285.414458    134.709649
PG22 -19464.876720  -4482.409862 -16932.400520     30.231131
PG23  20904.548788  16254.026825  -3102.773253    157.487943
PG24  -4098.252427  17419.010550 -19917.840774   -432.710413
PG25  16263.788117  20554.495317  -5450.271241    488.766947
PG26  18277.998187  -3185.828909  18981.258202    189.566663
PG27  12694.529152 -20227.696477  10873.890073     -4.564631
PG28  25677.467658  -4664.367528  -4937.808576   -133.120959
PG29   6671.737621  18421.641824  17834.007621   -606.854345
PG30 -24868.877065   -482.196621   9814.369117   -431.785121
PG31  24515.019156  -9705.057778   4461.461856   -227.789209
PG32  15525.379877  -1004.380564 -21300.378461   -611.944518
PR01   -485.344813  23713.022552   9378.845757     77.327030
PR02   6894.345619  23187.925574  -8147.630722    -22.476195
PR03  11235.143917   9274.365393 -20903.918522     94.670802
PR04   9033.799438  -9244.003500 -21954.449322    223.718022
PR05   2236.947481 -22819.839813 -11135.057193    127.007474
PR07 -11293.817010  -8221.031357  21375.446086     75.935329
PR08  -9036.541752   9602.781312  21906.379398    -74.458701
PR09 -15449.850618 -13633.324088  15104.364401    170.325201
PR11 -19993.057158    337.330409 -15842.047636     34.135308
PR12  -2761.839437  10752.715055 -22948.886524     36.807578
PR13  13206.369857  13770.720932 -16954.282807    -44.413454
PR14  23949.806140   8687.218596   1080.004760     26.072900
PR15  19084.412717  -1193.713349  16891.991896     82.142518
PR16   2945.769242 -10529.042185  23048.344996     23.321469
PR17  16831.715429  -2012.884798  19084.248974     61.739298
PR18  21239.981027 -12979.680538   5454.849611    127.708482
PR19  16465.643828 -16943.624576  -9608.542856   -266.037824
PR20  -1480.545925 -11367.980321 -22769.358292   -108.363697
PR21 -16924.303528   2111.983621 -18956.540020    -77.449539
PR22 -21583.403094  12918.701629  -4263.828058    108.415291
PR24   2749.247361  11360.615435  22690.530482    -44.177374
PE02 -22231.023867 -19249.403847  -3296.254649    103.906702
PE03 -12515.239199 -14431.182014  22612.807039    -94.239220
PE04  18060.413892  -7796.633061 -22108.610377   -328.724019
PE05    241.055442 -27888.894601   9920.794164   4720.629352
PE07 -13169.713370  24914.581231   9050.268217   -104.102703
PE08 -17920.375819   7039.911499  22482.161322   -224.850566
PE09  13156.889036 -24880.862354  -9180.659125   -338.283634
PE10  26488.058160 -11506.406686  -6489.021762   -602.419513
PE11  19381.584000 -15790.419283 -15837.651229   3243.035206
PE12  28864.136790  -5883.917487   2767.900650   -909.035722
PE13 -19979.645037  15574.378912  15331.565835    -20.210194
PE14  17871.554490  -3587.912693  18944.176858 999999.999999
PE15 -28886.107427   5587.927360  -3304.468648    -86.152560
PE18 -17474.940844  -9268.180339 -23054.433883 999999.999999
PE19  11118.359677  16606.817383 -21826.700931   -603.185483
PE21  10030.351034  23972.955423 -14188.045360   -579.338369
PE24   9043.924326 -14609.576610  24077.538366   -601.653028
PE25  -9685.550568 -23919.331984  14487.579255      0.964659
PE26   1220.910637  16315.447212  24677.394885    370.571232
PE27  -8594.803095  14934.136497 -24076.313672   -276.265882
PE30 -22050.870518  -3041.793987 -19520.854771     -3.453368
PE31  21952.851792   2819.213122  19656.040803    -16.144860
PE33  20277.105701   7882.273945  20078.479509      7.681085
PE34 -20746.057468  -7499.150959 -19735.196797    -94.981950
PE36   -467.378623 -16292.393384 -24699.552499   -186.795608
EOF
